STARLINK-5914           
1 55941U 23037AD  26193.77823284  .00000707  00000+0  67019-4 0  9991
2 55941  70.0007 329.2112 0002976 268.6757  91.4061 14.98325855182715
STARLINK-5917           
1 55942U 23037AE  26193.79489257  .00000364  00000+0  38262-4 0  9999
2 55942  70.0005 328.8657 0003283 266.8053  93.2731 14.98332316182729
STARLINK-5932           
1 55943U 23037AF  26193.80323854  .00000340  00000+0  36315-4 0  9993
2 55943  70.0005 328.8857 0003254 268.8282  91.2505 14.98334106182722
STARLINK-5926           
1 55944U 23037AG  26193.79906977  .00000231  00000+0  27185-4 0  9999
2 55944  70.0008 328.8803 0003023 267.6414  92.4399 14.98329898182721
STARLINK-5925           
1 55945U 23037AH  26193.80759566  .00000427  00000+0  43558-4 0  9991
2 55945  70.0001 328.9108 0003521 268.2241  91.8515 14.98326275182721
STARLINK-5857           
1 55946U 23037AJ  26193.80742056  .00000604  00000+0  58412-4 0  9990
2 55946  70.0000 328.9091 0003202 268.8386  91.2406 14.98327843182718
STARLINK-5900           
1 55948U 23037AL  26193.75295899 -.00001252  00000+0 -97108-4 0  9991
2 55948  70.0001 309.2420 0003393 275.0066  85.0706 14.98328618183205
STARLINK-5899           
1 55949U 23037AM  26193.76130233  .00000357  00000+0  37711-4 0  9990
2 55949  70.0006 309.2713 0003121 270.3200  89.7601 14.98332294183203
STARLINK-5911           
1 55950U 23037AN  26193.68202189  .00000428  00000+0  43674-4 0  9997
2 55950  70.0004 309.3958 0003390 267.9329  92.1442 14.98321497183199
STARLINK-5908           
1 55951U 23037AP  26193.79072610  .00000550  00000+0  53842-4 0  9998
2 55951  70.0005 328.8507 0003373 264.5273  95.5501 14.98336548182723
STARLINK-5893           
1 55952U 23037AQ  26193.75312104  .00000063  00000+0  13045-4 0  9990
2 55952  70.0007 309.2433 0003219 270.6412  89.4378 14.98331440183203
STARLINK-5892           
1 55954U 23037AS  26193.72375117  .00000477  00000+0  47794-4 0  9999
2 55954  69.9998 309.1380 0003272 271.2508  88.8276 14.98336955183209
STARLINK-5878           
1 55955U 23037AT  26193.74043358 -.00000767  00000+0 -56542-4 0  9996
2 55955  70.0004 309.1976 0003218 271.2162  88.8628 14.98323743183200
STARLINK-5883           
1 55956U 23037AU  26193.71539192 -.00000448  00000+0 -29792-4 0  9993
2 55956  70.0001 309.1092 0003154 268.5652  91.5145 14.98326836183200
STARLINK-5884           
1 55957U 23037AV  26194.07840721 -.00000370  00000+0 -23179-4 0  9994
2 55957  70.0005 308.3710 0003357 265.1359  94.9417 14.98337661183257
STARLINK-5928           
1 55958U 23037AW  26193.66949613  .00000479  00000+0  47933-4 0  9991
2 55958  70.0001 309.3509 0003319 267.9077  92.1702 14.98332659183198
STARLINK-5929           
1 55959U 23037AX  26194.06588388  .00000219  00000+0  26112-4 0  9993
2 55959  70.0000 308.3258 0003379 268.1928  91.8844 14.98331489183252
STARLINK-5938           
1 55960U 23037AY  26194.07857384 -.00005186  00000+0 -42702-3 0  9993
2 55960  69.9999 308.3524 0003532 267.7271  92.3483 14.98339024183259
STARLINK-5933           
1 55961U 23037AZ  26193.71955398  .00004723  00000+0  40370-3 0  9991
2 55961  69.9997 309.1251 0003157 253.8742 106.2070 14.98297786183206
STARLINK-5906           
1 55962U 23037BA  26193.69036554  .00000519  00000+0  51305-4 0  9993
2 55962  70.0005 309.4194 0003349 269.4178  90.6597 14.98334278183194
STARLINK-5924           
1 55963U 23037BB  26193.72793061 -.00001186  00000+0 -91610-4 0  9997
2 55963  70.0007 309.1526 0003172 266.4740  93.6056 14.98317965183208
STARLINK-5895           
1 55964U 23037BC  26193.72171132  .00012659  00000+0  75385-3 0  9992
2 55964  69.9972 299.8699 0001649 191.1804 168.9325 15.11356401183439
STARLINK-5894           
1 55965U 23037BD  26194.11177353  .00000311  00000+0  33888-4 0  9993
2 55965  69.9997 308.0821 0003552 269.0218  91.0534 14.98329009183263
SES-18                  
1 55970U 23038A   26193.89899248 -.00000102  00000+0  00000+0 0  9992
2 55970   0.0475 262.3353 0000732 311.9132 297.0806  1.00271249 12360
SES-19                  
1 55971U 23038B   26193.96403529  .00000086  00000+0  00000+0 0  9994
2 55971   0.0165 326.4823 0001596 156.8223  19.7105  1.00273078 12359
TIANMU-1 03             
1 55973U 23039A   26194.17130997  .00010590  00000+0  20440-3 0  9992
2 55973  97.5234   9.1731 0002763  32.6158 327.5262 15.48006921184854
TIANMU-1 04             
1 55974U 23039B   26194.21516594  .00010277  00000+0  19417-3 0  9993
2 55974  97.5170   8.3745 0003206  20.3826 339.7551 15.48629889184871
TIANMU-1 05             
1 55975U 23039C   26194.21799575  .00010071  00000+0  19498-3 0  9997
2 55975  97.5216   8.8268 0003148  50.6394 309.5134 15.47930951184842
TIANMU-1 06             
1 55976U 23039D   26194.22021883  .00011276  00000+0  21359-3 0  9996
2 55976  97.5223   9.4914 0003250  42.5398 317.6103 15.48528618184877
COSMOS 2567             
1 55978U 23040A   26194.20974495  .00002024  00000+0  83939-4 0  9998
2 55978  97.5883 120.7108 0002032  61.1608 298.9833 15.25067069184022
