OBJECT_NAME,OBJECT_ID,EPOCH,MEAN_MOTION,ECCENTRICITY,INCLINATION,RA_OF_ASC_NODE,ARG_OF_PERICENTER,MEAN_ANOMALY,EPHEMERIS_TYPE,CLASSIFICATION_TYPE,NORAD_CAT_ID,ELEMENT_SET_NO,REV_AT_EPOCH,BSTAR,MEAN_MOTION_DOT,MEAN_MOTION_DDOT
STARLINK-5914,2023-037AD,2026-07-12T18:40:39.317376,14.98325855,.0002976,70.0007,329.2112,268.6757,91.4061,0,U,55941,999,18271,.67019E-4,.707E-5,0
STARLINK-5917,2023-037AE,2026-07-12T19:04:38.718048,14.98332316,.0003283,70.0005,328.8657,266.8053,93.2731,0,U,55942,999,18272,.38262E-4,.364E-5,0
STARLINK-5932,2023-037AF,2026-07-12T19:16:39.809856,14.98334106,.0003254,70.0005,328.8857,268.8282,91.2505,0,U,55943,999,18272,.36315E-4,.34E-5,0
STARLINK-5926,2023-037AG,2026-07-12T19:10:39.628128,14.98329898,.0003023,70.0008,328.8803,267.6414,92.4399,0,U,55944,999,18272,.27185E-4,.231E-5,0
STARLINK-5925,2023-037AH,2026-07-12T19:22:56.265024,14.98326275,.0003521,70.0001,328.9108,268.2241,91.8515,0,U,55945,999,18272,.43558E-4,.427E-5,0
STARLINK-5857,2023-037AJ,2026-07-12T19:22:41.136384,14.98327843,.0003202,70.0000,328.9091,268.8386,91.2406,0,U,55946,999,18271,.58412E-4,.604E-5,0
STARLINK-5900,2023-037AL,2026-07-12T18:04:15.656736,14.98328618,.0003393,70.0001,309.2420,275.0066,85.0706,0,U,55948,999,18320,-.97108E-4,-.1252E-4,0
STARLINK-5899,2023-037AM,2026-07-12T18:16:16.521312,14.98332294,.0003121,70.0006,309.2713,270.3200,89.7601,0,U,55949,999,18320,.37711E-4,.357E-5,0
STARLINK-5911,2023-037AN,2026-07-12T16:22:06.691296,14.98321497,.000339,70.0004,309.3958,267.9329,92.1442,0,U,55950,999,18319,.43674E-4,.428E-5,0
STARLINK-5908,2023-037AP,2026-07-12T18:58:38.735040,14.98336548,.0003373,70.0005,328.8507,264.5273,95.5501,0,U,55951,999,18272,.53842E-4,.55E-5,0
STARLINK-5893,2023-037AQ,2026-07-12T18:04:29.657856,14.98331440,.0003219,70.0007,309.2433,270.6412,89.4378,0,U,55952,999,18320,.13045E-4,.63E-6,0
STARLINK-5892,2023-037AS,2026-07-12T17:22:12.101088,14.98336955,.0003272,69.9998,309.1380,271.2508,88.8276,0,U,55954,999,18320,.47794E-4,.477E-5,0
STARLINK-5878,2023-037AT,2026-07-12T17:46:13.461312,14.98323743,.0003218,70.0004,309.1976,271.2162,88.8628,0,U,55955,999,18320,-.56542E-4,-.767E-5,0
STARLINK-5883,2023-037AU,2026-07-12T17:10:09.861888,14.98326836,.0003154,70.0001,309.1092,268.5652,91.5145,0,U,55956,999,18320,-.29792E-4,-.448E-5,0
STARLINK-5884,2023-037AV,2026-07-13T01:52:54.382944,14.98337661,.0003357,70.0005,308.3710,265.1359,94.9417,0,U,55957,999,18325,-.23179E-4,-.37E-5,0
STARLINK-5928,2023-037AW,2026-07-12T16:04:04.465632,14.98332659,.0003319,70.0001,309.3509,267.9077,92.1702,0,U,55958,999,18319,.47933E-4,.479E-5,0
STARLINK-5929,2023-037AX,2026-07-13T01:34:52.367232,14.98331489,.0003379,70.0000,308.3258,268.1928,91.8844,0,U,55959,999,18325,.26112E-4,.219E-5,0
STARLINK-5938,2023-037AY,2026-07-13T01:53:08.779776,14.98339024,.0003532,69.9999,308.3524,267.7271,92.3483,0,U,55960,999,18325,-.42702E-3,-.5186E-4,0
STARLINK-5933,2023-037AZ,2026-07-12T17:16:09.463872,14.98297786,.0003157,69.9997,309.1251,253.8742,106.2070,0,U,55961,999,18320,.4037E-3,.4723E-4,0
STARLINK-5906,2023-037BA,2026-07-12T16:34:07.582656,14.98334278,.0003349,70.0005,309.4194,269.4178,90.6597,0,U,55962,999,18319,.51305E-4,.519E-5,0
STARLINK-5924,2023-037BB,2026-07-12T17:28:13.204704,14.98317965,.0003172,70.0007,309.1526,266.4740,93.6056,0,U,55963,999,18320,-.9161E-4,-.1186E-4,0
STARLINK-5895,2023-037BC,2026-07-12T17:19:15.858048,15.11356401,.0001649,69.9972,299.8699,191.1804,168.9325,0,U,55964,999,18343,.75385E-3,.12659E-3,0
STARLINK-5894,2023-037BD,2026-07-13T02:40:57.232992,14.98329009,.0003552,69.9997,308.0821,269.0218,91.0534,0,U,55965,999,18326,.33888E-4,.311E-5,0
SES-18,2023-038A,2026-07-12T21:34:32.950272,1.00271249,.0000732,0.0475,262.3353,311.9132,297.0806,0,U,55970,999,1236,0,-.102E-5,0
SES-19,2023-038B,2026-07-12T23:08:12.649056,1.00273078,.0001596,0.0165,326.4823,156.8223,19.7105,0,U,55971,999,1235,0,.86E-6,0
TIANMU-1 03,2023-039A,2026-07-13T04:06:41.181408,15.48006921,.0002763,97.5234,9.1731,32.6158,327.5262,0,U,55973,999,18485,.2044E-3,.1059E-3,0
TIANMU-1 04,2023-039B,2026-07-13T05:09:50.337216,15.48629889,.0003206,97.5170,8.3745,20.3826,339.7551,0,U,55974,999,18487,.19417E-3,.10277E-3,0
TIANMU-1 05,2023-039C,2026-07-13T05:13:54.832800,15.47930951,.0003148,97.5216,8.8268,50.6394,309.5134,0,U,55975,999,18484,.19498E-3,.10071E-3,0
TIANMU-1 06,2023-039D,2026-07-13T05:17:06.906912,15.48528618,.000325,97.5223,9.4914,42.5398,317.6103,0,U,55976,999,18487,.21359E-3,.11276E-3,0
COSMOS 2567,2023-040A,2026-07-13T05:02:01.963680,15.25067069,.0002032,97.5883,120.7108,61.1608,298.9833,0,U,55978,999,18402,.83939E-4,.2024E-4,0
